[{"id":"40549","name":"BEIDOU-3S IGSO-1S","tle1":"1 40549U 15019A   26175.80819344 -.00000178  00000+0  00000+0 0  9991","tle2":"2 40549  49.1794 295.3695 0038917 191.3782 167.8940  1.00249638 41144"},{"id":"40730","name":"NAVSTAR 74 (USA 262)","tle1":"1 40730U 15033A   26175.69997945 -.00000052  00000+0  00000+0 0  9991","tle2":"2 40730  53.9765 266.7766 0115141  30.2383 330.4597  2.00556017 80143"},{"id":"40748","name":"BEIDOU-3S M2S","tle1":"1 40748U 15037A   26174.22980179 -.00000108  00000+0  00000+0 0  9995","tle2":"2 40748  54.8652 301.8377 0008569 258.4474 101.4494  1.86231957 74237"},{"id":"40749","name":"BEIDOU-3S M1S","tle1":"1 40749U 15037B   26175.51021828 -.00000109  00000+0  00000+0 0  9997","tle2":"2 40749  54.8605 301.7817 0003283  62.2648 297.7606  1.86254971 74264"},{"id":"40890","name":"GSAT0206 (GALILEO 10)","tle1":"1 40890U 15045B   26175.49628500  .00000051  00000+0  00000+0 0  9995","tle2":"2 40890  54.9433 221.4024 0001685 336.0482  24.0274  1.70473861 67168"},{"id":"40938","name":"BEIDOU-3S IGSO-2S","tle1":"1 40938U 15053A   26175.69365485 -.00000135  00000+0  00000+0 0  9993","tle2":"2 40938  49.2082 258.6911 0065518 192.8467 165.7674  1.00257917 39421"},{"id":"41019","name":"NAVSTAR 75 (USA 265)","tle1":"1 41019U 15062A   26175.75577088 -.00000091  00000+0  00000+0 0  9996","tle2":"2 41019  56.9645  30.5195 0112111 231.0101 128.0356  2.00567160 77983"},{"id":"41028","name":"GSAT-15","tle1":"1 41028U 15065A   26176.16919925 -.00000248  00000+0  00000+0 0  9999","tle2":"2 41028   0.0514 263.9883 0004576 171.2303 352.5279  1.00271581 38879"},{"id":"41174","name":"GSAT0209 (GALILEO 12)","tle1":"1 41174U 15079A   26175.66441508 -.00000037  00000+0  00000+0 0  9993","tle2":"2 41174  55.8317 101.0568 0004984 351.6457   8.3201  1.70473674 64907"},{"id":"41175","name":"GSAT0208 (GALILEO 11)","tle1":"1 41175U 15079B   26173.53836061 -.00000027  00000+0  00000+0 0  9999","tle2":"2 41175  55.8290 101.1119 0004839 343.6998  16.2634  1.70473694 65283"},{"id":"41241","name":"IRNSS-1E","tle1":"1 41241U 16003A   26175.61900264 -.00000319  00000+0  00000+0 0  9993","tle2":"2 41241  33.2496  59.6425 0019025 179.2387   8.5415  1.00274996 38154"},{"id":"41328","name":"NAVSTAR 76 (USA 266)","tle1":"1 41328U 16007A   26174.85002808 -.00000060  00000+0  00000+0 0  9998","tle2":"2 41328  55.5277  89.1954 0095820 247.3210 111.6653  2.00551374 75978"},{"id":"41330","name":"COSMOS 2514 [GLONASS-M]","tle1":"1 41330U 16008A   26174.85480678 -.00000083  00000+0  00000+0 0  9992","tle2":"2 41330  65.0172 312.7777 0011551 198.7083 161.2407  2.13102654 80763"},{"id":"41434","name":"BEIDOU-2 IGSO-6","tle1":"1 41434U 16021A   26175.09191728 -.00000155  00000+0  00000+0 0  9994","tle2":"2 41434  60.2358  37.9691 0057538 231.1257 128.7042  1.00259092 37558"},{"id":"41469","name":"IRNSS-1G","tle1":"1 41469U 16027A   26175.83397804 -.00000329  00000+0  00000+0 0  9996","tle2":"2 41469   5.2145  97.3003 0006263   2.7788 242.3958  1.00276825 37255"},{"id":"41549","name":"GSAT0211 (GALILEO 14)","tle1":"1 41549U 16030A   26174.83541472  .00000046  00000+0  00000+0 0  9995","tle2":"2 41549  55.0937 221.5119 0003056 321.3377  38.7209  1.70474023 62785"},{"id":"41550","name":"GSAT0210 (GALILEO 13)","tle1":"1 41550U 16030B   26176.26585571  .00000056  00000+0  00000+0 0  9995","tle2":"2 41550  55.0912 221.4705 0008659 257.5264 102.4642  1.70473937 62805"},{"id":"41586","name":"BEIDOU-2 G7","tle1":"1 41586U 16037A   26176.33301515 -.00000345  00000+0  00000+0 0  9995","tle2":"2 41586   1.7407  69.4043 0006822   0.3351  74.1665  1.00273076  6978"},{"id":"41589","name":"EUTELSAT 117 WEST B","tle1":"1 41589U 16038B   26174.93344307 -.00000005  00000+0  00000+0 0  9992","tle2":"2 41589   0.0091 158.0636 0000063  73.8469 259.2281  1.00270429 36737"},{"id":"41859","name":"GSAT0207 (GALILEO 15)","tle1":"1 41859U 16069A   26174.19787196 -.00000031  00000+0  00000+0 0  9990","tle2":"2 41859  55.5021 100.9199 0005134 331.8808  28.0688  1.70473659 59503"},{"id":"41860","name":"GSAT0212 (GALILEO 16)","tle1":"1 41860U 16069B   26174.63790319 -.00000034  00000+0  00000+0 0  9995","tle2":"2 41860  55.5001 100.9027 0004534   9.5312 350.4536  1.70473709 59763"},{"id":"41861","name":"GSAT0213 (GALILEO 17)","tle1":"1 41861U 16069C   26174.41851368 -.00000032  00000+0  00000+0 0  9992","tle2":"2 41861  55.5022 100.9167 0004687 315.0710  44.8679  1.70474211 59624"},{"id":"41862","name":"GSAT0214 (GALILEO 18)","tle1":"1 41862U 16069D   26172.80498560 -.00000023  00000+0  00000+0 0  9995","tle2":"2 41862  55.5000 100.9540 0003849 321.2487  38.7039  1.70473560 59724"},{"id":"42709","name":"SES-15","tle1":"1 42709U 17026A   26175.50131078  .00000068  00000+0  00000+0 0  9996","tle2":"2 42709   0.0193 335.4736 0000659  95.5096 252.9752  1.00268280  7503"},{"id":"42738","name":"QZS-2 (MICHIBIKI-2)","tle1":"1 42738U 17028A   26175.48562404 -.00000157  00000+0  00000+0 0  9998","tle2":"2 42738  39.4163 243.0474 0759303 269.3393  77.0374  1.00282000  7691"},{"id":"42917","name":"QZS-3 (MICHIBIKI-3)","tle1":"1 42917U 17048A   26176.26494472 -.00000338  00000+0  00000+0 0  9996","tle2":"2 42917   0.0646 151.3246 0002242 298.5894  45.9158  1.00272790 32340"},{"id":"42939","name":"COSMOS 2522 [GLONASS-M]","tle1":"1 42939U 17055A   26174.69248618  .00000100  00000+0  00000+0 0  9998","tle2":"2 42939  64.1036 191.6583 0030269 259.5847 100.1235  2.13066943 68114"},{"id":"42965","name":"QZS-4 (MICHIBIKI-4)","tle1":"1 42965U 17062A   26169.35012920 -.00000360  00000+0  00000+0 0  9996","tle2":"2 42965  40.1070 343.4662 0745018 271.8091 274.2172  1.00250086 31811"},{"id":"43001","name":"BEIDOU-3 M1","tle1":"1 43001U 17069A   26174.03955932 -.00000093  00000+0  00000+0 0  9998","tle2":"2 43001  56.6974  62.8909 0010047 326.6149  33.3575  1.86231304 58719"},{"id":"43002","name":"BEIDOU-3 M2","tle1":"1 43002U 17069B   26173.97832444 -.00000093  00000+0  00000+0 0  9993","tle2":"2 43002  56.6963  62.9294 0008992 352.6727   7.3499  1.86230523 58700"},{"id":"43055","name":"GSAT0215 (GALILEO 19)","tle1":"1 43055U 17079A   26173.88137223  .00000039  00000+0  00000+0 0  9994","tle2":"2 43055  55.0723 221.3499 0003221 264.2586  95.7812  1.70474658 53082"}]